OrganizationID,County,State,ZipCode
Organization 1,Jefferson,KY,40202
Organization 2,Jefferson,KY,40202
Organization 3,Jefferson,KY,40203
Organization 4,Jefferson,KY,
Organization 5,Jefferson,KY,40204
Organization 6,Jefferson,KY,
Organization 7,Jefferson,KY,40299
Organization 8,Jefferson,KY,40205
Organization 9,Jefferson,KY,
Organization 10,Jefferson,KY,
Organization 11,Jefferson,KY,
Organization 12,Jefferson,KY,
Organization 13,Jefferson,KY,
Organization 14,Jefferson,KY,40205
Organization 15,Jefferson,KY,40214
Organization 16,Jefferson,KY,40203
Organization 17,Jefferson,KY,40208
Organization 18,Jefferson,KY,40202
Organization 19,Jefferson,KY,40202
Organization 20,Jefferson,KY,40203
Organization 21,Jefferson,KY,40203
Organization 22,Jefferson,KY,
Organization 23,Jefferson,KY,
Organization 24,Jefferson,KY,
Organization 25,Jefferson,KY,40205
Organization 26,Jefferson,KY,40214
Organization 27,Jefferson,KY,
Organization 28,Jefferson,KY,40299
Organization 29,Jefferson,KY,
Organization 30,Jefferson,KY,
Organization 31,Shelby,KY,40065
Organization 32,Shelby,KY,40065
Organization 33,Shelby,KY,40065
Organization 34,Jefferson,KY,40208
Organization 35,Jefferson,KY,40223
Organization 36,Jefferson,KY,40207
Organization 37,Jefferson,KY,40203
Organization 38,Jefferson,KY,40203
Organization 39,Jefferson,KY,40218
Organization 40,Jefferson,KY,40208
Organization 41,Jefferson,KY,40217
Organization 42,Jefferson,KY,40218
Organization 43,Jefferson,KY,40218
Organization 44,Jefferson,KY,40214
Organization 45,Jefferson,KY,40203
Organization 46,Bullitt,KY,40165
Organization 47,Bullitt,KY,40165
Organization 48,Jefferson,KY,
Organization 49,Jefferson,KY,40208
Organization 50,Jefferson,KY,40212
Organization 51,Jefferson,KY,40212
Organization 52,Jefferson,KY,40208
Organization 53,Jefferson,KY,40208
Organization 54,Jefferson,KY,40212
Organization 55,Jefferson,KY,40208
Organization 56,Jefferson,KY,40208
Organization 57,Shelby,KY,40065
Organization 58,Jefferson,KY,40202
Organization 59,Jefferson,KY,40202
Organization 60,Jefferson,KY,40203
Organization 61,Jefferson,KY,40209
Organization 62,Jefferson,KY,
Organization 63,Jefferson,KY,40208
Organization 64,Jefferson,KY,40203
Organization 65,Jefferson,KY,40202
Organization 66,Jefferson,KY,40203
Organization 67,Jefferson,KY,
Organization 68,Jefferson,KY,40202
Organization 69,Jefferson,KY,40243
Organization 70,Shelby,KY,40065
Organization 71,Jefferson,KY,
Organization 72,Jefferson,KY,40228
Organization 73,Jefferson,KY,40212
Organization 74,Jefferson,KY,40203
Organization 75,Jefferson,KY,40206
Organization 76,Jefferson,KY,40242
Organization 77,Jefferson,KY,40203
Organization 78,Jefferson,KY,40214
Organization 79,Jefferson,KY,40202
Organization 80,Jefferson,KY,40202
Organization 81,Jefferson,KY,40216
Organization 82,Jefferson,KY,40272
Organization 83,Jefferson,KY,
Organization 84,Jefferson,KY,40203
Organization 85,Jefferson,KY,40203
Organization 86,Jefferson,KY,40206
Organization 87,Jefferson,KY,40214
Organization 88,Jefferson,KY,40204
Organization 89,Jefferson,KY,40215
Organization 90,Jefferson,KY,40202
Organization 91,Jefferson,KY,40212
Organization 92,Jefferson,KY,40208
Organization 93,Jefferson,KY,40291
Organization 94,Jefferson,KY,40220
Organization 95,Jefferson,KY,40214
Organization 96,Jefferson,KY,40207
Organization 97,Jefferson,KY,40204
Organization 98,Jefferson,KY,
Organization 99,Jefferson,KY,40245
Organization 100,Jefferson,KY,40204
Organization 101,Jefferson,KY,40204
Organization 102,Jefferson,KY,
Organization 103,Jefferson,KY,40202
Organization 104,Jefferson,KY,40202
Organization 105,Jefferson,KY,40204
Organization 106,Jefferson,KY,
Organization 107,Jefferson,KY,40202
Organization 108,Jefferson,KY,
Organization 109,Jefferson,KY,40203
Organization 110,Jefferson,KY,40207
Organization 111,Jefferson,KY,40222
Organization 112,Jefferson,KY,40041
Organization 113,Jefferson,KY,40204
Organization 114,Shelby,KY,40065
Organization 115,Jefferson,KY,40206
Organization 116,Jefferson,KY,40203
Organization 117,Jefferson,KY,40206
Organization 118,Jefferson,KY,40202
Organization 119,Jefferson,KY,40218
Organization 120,Jefferson,KY,40202
Organization 121,Jefferson,KY,40203
Organization 122,Jefferson,KY,40203
Organization 123,Jefferson,KY,40299
Organization 124,Jefferson,KY,
Organization 125,Jefferson,KY,40202
Organization 126,Bullitt,KY,40165
Organization 127,Oldham,KY,40014
Organization 128,Shelby,KY,40065
Organization 129,Jefferson,KY,
Organization 130,Jefferson,KY,40202
Organization 131,Jefferson,KY,40214
Organization 132,Jefferson,KY,40299
Organization 133,Jefferson,KY,40216
Organization 134,Jefferson,KY,40205
Organization 135,Jefferson,KY,40203
Organization 136,Shelby,KY,40067
Organization 137,Jefferson,KY,40203
Organization 138,Jefferson,KY,40202
Organization 139,Jefferson,KY,40203
Organization 140,Jefferson,KY,40202
Organization 141,Jefferson,KY,40202
Organization 142,Bullitt,KY,40165
Organization 143,Oldham,KY,40031
Organization 144,Shelby,KY,40065
Organization 145,Jefferson,KY,40203
Organization 146,Jefferson,KY,40207
Organization 147,Jefferson,KY,40214
Organization 148,Jefferson,KY,40299
Organization 149,Jefferson,KY,40223
Organization 150,Jefferson,KY,
Organization 151,Jefferson,KY,
Organization 152,Jefferson,KY,40202
Organization 153,Jefferson,KY,40221
Organization 154,Jefferson,KY,
Organization 155,Jefferson,KY,40228
Organization 156,Jefferson,KY,40203
Organization 157,Jefferson,KY,40203
Organization 158,Jefferson,KY,40203
Organization 159,Jefferson,KY,40202
Organization 160,Jefferson,KY,40202
Organization 161,Jefferson,KY,40202
Organization 162,Jefferson,KY,40202
Organization 163,Jefferson,KY,40204
Organization 164,Jefferson,KY,40202
Organization 165,Jefferson,KY,40203
Organization 166,Jefferson,KY,40203
Organization 167,Jefferson,KY,40203
Organization 168,Jefferson,KY,40203
Organization 169,Jefferson,KY,40202
Organization 170,Jefferson,KY,40202
Organization 171,Jefferson,KY,40202
Organization 172,Jefferson,KY,40202
Organization 173,Jefferson,KY,40203
Organization 174,Jefferson,KY,40203
Organization 175,Jefferson,KY,40202
Organization 176,Jefferson,KY,40215
Organization 177,Jefferson,KY,40222
Organization 178,Jefferson,KY,40223
Organization 179,Jefferson,KY,40216
Organization 180,Jefferson,KY,40212
Organization 181,Jefferson,KY,40202
Organization 182,Jefferson,KY,
Organization 183,Jefferson,KY,40213
Organization 184,Jefferson,KY,
Organization 185,Jefferson,KY,40203
Organization 186,Jefferson,KY,40202
Organization 187,Jefferson,KY,40205
Organization 188,Jefferson,KY,40206
Organization 189,Jefferson,KY,40203
Organization 190,Jefferson,KY,40204
Organization 191,Jefferson,KY,40203
Organization 192,Jefferson,KY,
Organization 193,Jefferson,KY,40212
Organization 194,Jefferson,KY,
Organization 195,Jefferson,KY,40203
Organization 196,Jefferson,KY,40204
Organization 197,Jefferson,KY,40203
Organization 198,Jefferson,KY,40203
Organization 199,Jefferson,KY,40203
Organization 200,Jefferson,KY,40203
Organization 201,Jefferson,KY,40212
Organization 202,Jefferson,KY,40223
Organization 203,Jefferson,KY,
Organization 204,Jefferson,KY,40202
Organization 205,Jefferson,KY,40202
Organization 206,Bullitt,KY,40165
Organization 207,Bullitt,KY,40047
Organization 208,Bullitt,KY,40165
Organization 209,Jefferson,KY,
Organization 210,Jefferson,KY,40202
Organization 211,Jefferson,KY,40217
Organization 212,Jefferson,KY,40207
Organization 213,Jefferson,KY,40214
Organization 214,Jefferson,KY,40202
Organization 215,Jefferson,KY,40202
Organization 216,Jefferson,KY,40222
Organization 217,Jefferson,KY,40202
Organization 218,Jefferson,KY,40202
Organization 219,Jefferson,KY,40202
Organization 220,Jefferson,KY,40208
Organization 221,Jefferson,KY,40204
Organization 222,Jefferson,KY,40206
Organization 223,Jefferson,KY,40217
Organization 224,Jefferson,KY,40204
Organization 225,Jefferson,KY,40203
Organization 226,Jefferson,KY,40205
Organization 227,Jefferson,KY,40217
Organization 228,Jefferson,KY,40213
Organization 229,Jefferson,KY,40299
Organization 230,Jefferson,KY,40207
Organization 231,Jefferson,KY,40207
Organization 232,Jefferson,KY,40207
Organization 233,Jefferson,KY,40207
Organization 234,Jefferson,KY,40216
Organization 235,Jefferson,KY,40207
Organization 236,Jefferson,KY,40241
Organization 237,Jefferson,KY,40241
Organization 238,Jefferson,KY,40214
Organization 239,Jefferson,KY,40229
Organization 240,Jefferson,KY,40291
Organization 241,Jefferson,KY,40205
Organization 242,Jefferson,KY,40219
Organization 243,Jefferson,KY,40219
Organization 244,Jefferson,KY,40258
Organization 245,Jefferson,KY,40291
Organization 246,Jefferson,KY,40291
Organization 247,Jefferson,KY,40272
Organization 248,Jefferson,KY,40241
Organization 249,Jefferson,KY,40241
Organization 250,Jefferson,KY,40299
Organization 251,Jefferson,KY,40243
Organization 252,Jefferson,KY,40243
Organization 253,Oldham,KY,40031
Organization 254,Oldham,KY,40014
Organization 255,Shelby,KY,40065
Organization 256,Jefferson,KY,40222
Organization 257,Jefferson,KY,40203
Organization 258,Jefferson,KY,40219
Organization 259,Jefferson,KY,40242
Organization 260,Shelby,KY,40065
Organization 261,Jefferson,KY,
Organization 262,Oldham,KY,40031
Organization 263,Jefferson,KY,40206
Organization 264,Shelby,KY,40065
Organization 265,Oldham,KY,
Organization 266,Oldham,KY,
Organization 267,Jefferson,KY,40203
Organization 268,Jefferson,KY,40203
Organization 269,Jefferson,KY,40203
Organization 270,Jefferson,KY,40229
Organization 271,Jefferson,KY,40203
Organization 272,Jefferson,KY,40210
Organization 273,Jefferson,KY,40202
Organization 274,Jefferson,KY,40212
Organization 275,Jefferson,KY,
Organization 276,Jefferson,KY,
Organization 277,Jefferson,KY,40218
Organization 278,Jefferson,KY,
Organization 279,Jefferson,KY,40202
Organization 280,Bullitt,KY,40165
Organization 281,Jefferson,KY,40202
Organization 282,Jefferson,KY,40212
Organization 283,Jefferson,KY,40210
Organization 284,Jefferson,KY,40210
Organization 285,Jefferson,KY,40206
Organization 286,Jefferson,KY,40256
Organization 287,Jefferson,KY,40202
Organization 288,Jefferson,KY,
Organization 289,Jefferson,KY,40202
Organization 290,Jefferson,KY,40202
Organization 291,Jefferson,KY,40210
Organization 292,Jefferson,KY,40207
Organization 293,Jefferson,KY,40202
Organization 294,Jefferson,KY,40212
Organization 295,Jefferson,KY,40212
Organization 296,Jefferson,KY,40210
Organization 297,Jefferson,KY,40210
Organization 298,Jefferson,KY,40216
Organization 299,Jefferson,KY,40210
Organization 300,Jefferson,KY,40210
Organization 301,Jefferson,KY,40210
Organization 302,Jefferson,KY,40211
Organization 303,Jefferson,KY,40211
Organization 304,Jefferson,KY,40211
Organization 305,Jefferson,KY,40214
Organization 306,Jefferson,KY,40258
Organization 307,Jefferson,KY,40243
Organization 308,Jefferson,KY,40241
Organization 309,Jefferson,KY,40211
Organization 310,Jefferson,KY,40211
Organization 311,Jefferson,KY,40202
Organization 312,Jefferson,KY,40207
Organization 313,Jefferson,KY,40211
Organization 314,Jefferson,KY,40211
Organization 315,Jefferson,KY,40211
Organization 316,Jefferson,KY,40211
Organization 317,Jefferson,KY,40202
Organization 318,Jefferson,KY,
Organization 319,Jefferson,KY,40208
Organization 320,Jefferson,KY,40211
Organization 321,Shelby,KY,40065
Organization 322,Jefferson,KY,40205
Organization 323,Jefferson,KY,
Organization 324,Jefferson,KY,40207
Organization 325,Jefferson,KY,40202
Organization 326,Jefferson,KY,40208
Organization 327,Jefferson,KY,40212
Organization 328,Jefferson,KY,40222
Organization 329,Jefferson,KY,40216
Organization 330,Jefferson,KY,40219
Organization 331,Jefferson,KY,40211
Organization 332,Jefferson,KY,
Organization 333,Jefferson,KY,40204
Organization 334,Jefferson,KY,40207
Organization 335,Jefferson,KY,40299
Organization 336,Jefferson,KY,40202
Organization 337,Jefferson,KY,40208
Organization 338,Jefferson,KY,40206
Organization 339,Jefferson,KY,
Organization 340,Jefferson,KY,40211
Organization 341,Jefferson,KY,40202
Organization 342,Jefferson,KY,40205
Organization 343,Jefferson,KY,40202
Organization 344,Jefferson,KY,40202
Organization 345,Jefferson,KY,
Organization 346,Oldham,KY,40031
Organization 347,Jefferson,KY,40291
Organization 348,Jefferson,KY,40211
Organization 349,Jefferson,KY,40211
Organization 350,Jefferson,KY,40208
Organization 351,Jefferson,KY,40217
Organization 352,Jefferson,KY,40211
Organization 353,Jefferson,KY,40211
Organization 354,Jefferson,KY,40218
Organization 355,Jefferson,KY,40211
Organization 356,Jefferson,KY,40213
Organization 357,Jefferson,KY,40211
Organization 358,Jefferson,KY,40211
Organization 359,Jefferson,KY,40202
Organization 360,Oldham,KY,40010
Organization 361,Jefferson,KY,40211
Organization 362,Jefferson,KY,40217
Organization 363,Jefferson,KY,40217
Organization 364,Jefferson,KY,40218
Organization 365,Jefferson,KY,40214
Organization 366,Jefferson,KY,40059
Organization 367,Jefferson,KY,40211
Organization 368,Jefferson,KY,40211
Organization 369,Bullitt,KY,40165
Organization 370,Jefferson,KY,40212
Organization 371,Jefferson,KY,40211
Organization 372,Jefferson,KY,
Organization 373,Jefferson,KY,40216
Organization 451,Jefferson,KY,
Organization 452,Jefferson,KY,
Organization 453,Jefferson,KY,
Organization 454,Jefferson,KY,
Organization 455,Jefferson,KY,
Organization 456,Jefferson,KY,
Organization 457,Jefferson,KY,
Organization 458,Jefferson,KY,
Organization 459,Jefferson,KY,
Organization 460,Jefferson,KY,
Organization 461,Jefferson,KY,
Organization 462,Jefferson,KY,
Organization 463,Jefferson,KY,
Organization 464,Jefferson,KY,
Organization 465,Jefferson,KY,
Organization 466,Jefferson,KY,
Organization 467,Jefferson,KY,
